*******************************************************************************
Ephemeris / WWW_USER Mon Mar 24 08:43:13 2025 Pasadena, USA      / Horizons    
*******************************************************************************
Target body name: (2018 OZ)                       {source: JPL#6}
Center body name: Earth (399)                     {source: DE441}
Center-site name: Mauna Kea
*******************************************************************************
Start time      : A.D. 2019-Jan-05 04:06:00.0000 UT      
Stop  time      : A.D. 2019-Jan-05 16:47:00.0000 UT      
Step-size       : 1 minutes
*******************************************************************************
Target pole/equ : undefined
Target radii    : undefined                                                    
Center geodetic : 204.5278, 19.8260847, 4.21024   {E-lon(deg),Lat(deg),Alt(km)}
Center cylindric: 204.5278, 6006.35451, 2151.0229 {E-lon(deg),Dxy(km),Dz(km)}
Center pole/equ : ITRF93                          {East-longitude positive}
Center radii    : 6378.137, 6378.137, 6356.752 km {Equator_a, b, pole_c}       
Target primary  : Sun
Vis. interferer : MOON (R_eq= 1737.400) km        {source: DE441}
Rel. light bend : Sun                             {source: DE441}
Rel. lght bnd GM: 1.3271E+11 km^3/s^2                                          
Small-body perts: Yes                             {source: SB441-N16}
Atmos refraction: NO (AIRLESS)
RA format       : HMS
Time format     : CAL 
Calendar mode   : Mixed Julian/Gregorian
RTS-only print  : NO       
EOP file        : eop.250321.p250617                                           
EOP coverage    : DATA-BASED 1962-JAN-20 TO 2025-MAR-21. PREDICTS-> 2025-JUN-16
Units conversion: 1 au= 149597870.700 km, c= 299792.458 km/s, 1 day= 86400.0 s 
Table cut-offs 1: Elevation (-90.0deg=NO ),Airmass (>38.000=NO), Daylight (YES)
Table cut-offs 2: Solar elongation (  0.0,180.0=NO ),Local Hour Angle( 0.0=NO )
Table cut-offs 3: RA/DEC angular rate (     0.0=NO )                           
*******************************************************************************
Initial IAU76/J2000 heliocentric ecliptic osculating elements (au, days, deg.):
  EPOCH=  2458323.5 ! 2018-Jul-24.00 (TDB)         Residual RMS= .14478        
   EC= .2444891433359997   QR= .7813773137930096   TP= 2458414.1453434308      
   OM= 132.5941973996665   W=  282.5797798661226   IN= 11.86066121595313       
  Equivalent ICRF heliocentric cartesian coordinates (au, au/d):
   X= 5.818664496311505E-01  Y=-8.413793559776328E-01  Z=-3.233166781784031E-01
  VX= 1.092981696788880E-02 VY= 1.198494789184266E-02 VZ= 1.554952570596135E-03
Asteroid physical parameters (km, seconds, rotational period in hours):        
   GM= n.a.                RAD= n.a.               ROTPER= n.a.                
   H= 24.9                 G= .150                 B-V= n.a.                   
                           ALBEDO= n.a.            STYP= n.a.                  
*******************************************************************************
 Date__(UT)__HR:MN     R.A._________(ICRF)_________DEC
******************************************************
$$SOE
 2019-Jan-05 10:15     14 28 30.978292 -09 09 44.42745
 2019-Jan-05 10:16     14 28 31.109015 -09 09 44.44421
 2019-Jan-05 10:17     14 28 31.239725 -09 09 44.46098
 2019-Jan-05 10:18     14 28 31.370424 -09 09 44.47776
 2019-Jan-05 10:19     14 28 31.501110 -09 09 44.49455
 2019-Jan-05 10:20     14 28 31.631784 -09 09 44.51135
 2019-Jan-05 10:21     14 28 31.762446 -09 09 44.52816
 2019-Jan-05 10:22     14 28 31.893096 -09 09 44.54497
 2019-Jan-05 10:23     14 28 32.023734 -09 09 44.56179
 2019-Jan-05 10:24     14 28 32.154359 -09 09 44.57862
 2019-Jan-05 10:25     14 28 32.284972 -09 09 44.59546
 2019-Jan-05 10:26     14 28 32.415573 -09 09 44.61231
 2019-Jan-05 10:27     14 28 32.546162 -09 09 44.62916
 2019-Jan-05 10:28     14 28 32.676738 -09 09 44.64602
 2019-Jan-05 10:29     14 28 32.807302 -09 09 44.66289
 2019-Jan-05 10:30     14 28 32.937853 -09 09 44.67976
 2019-Jan-05 10:31     14 28 33.068392 -09 09 44.69664
 2019-Jan-05 10:32     14 28 33.198919 -09 09 44.71353
 2019-Jan-05 10:33     14 28 33.329433 -09 09 44.73042
 2019-Jan-05 10:34     14 28 33.459935 -09 09 44.74732
 2019-Jan-05 10:35     14 28 33.590424 -09 09 44.76423
 2019-Jan-05 10:36     14 28 33.720901 -09 09 44.78114
 2019-Jan-05 10:37     14 28 33.851365 -09 09 44.79806
 2019-Jan-05 10:38     14 28 33.981817 -09 09 44.81498
 2019-Jan-05 10:39     14 28 34.112256 -09 09 44.83191
 2019-Jan-05 10:40     14 28 34.242683 -09 09 44.84885
 2019-Jan-05 10:41     14 28 34.373097 -09 09 44.86579
 2019-Jan-05 10:42     14 28 34.503498 -09 09 44.88274
 2019-Jan-05 10:43     14 28 34.633887 -09 09 44.89969
 2019-Jan-05 10:44     14 28 34.764263 -09 09 44.91665
 2019-Jan-05 10:45     14 28 34.894627 -09 09 44.93361
 2019-Jan-05 10:46     14 28 35.024978 -09 09 44.95058
 2019-Jan-05 10:47     14 28 35.155316 -09 09 44.96756
 2019-Jan-05 10:48     14 28 35.285641 -09 09 44.98453
 2019-Jan-05 10:49     14 28 35.415954 -09 09 45.00152
 2019-Jan-05 10:50     14 28 35.546254 -09 09 45.01850
 2019-Jan-05 10:51     14 28 35.676541 -09 09 45.03549
 2019-Jan-05 10:52     14 28 35.806816 -09 09 45.05249
 2019-Jan-05 10:53     14 28 35.937078 -09 09 45.06949
 2019-Jan-05 10:54     14 28 36.067327 -09 09 45.08649
 2019-Jan-05 10:55     14 28 36.197563 -09 09 45.10350
 2019-Jan-05 10:56     14 28 36.327786 -09 09 45.12051
 2019-Jan-05 10:57     14 28 36.457997 -09 09 45.13752
 2019-Jan-05 10:58     14 28 36.588195 -09 09 45.15454
 2019-Jan-05 10:59     14 28 36.718379 -09 09 45.17156
 2019-Jan-05 11:00     14 28 36.848551 -09 09 45.18858
 2019-Jan-05 11:01     14 28 36.978711 -09 09 45.20561
 2019-Jan-05 11:02     14 28 37.108857 -09 09 45.22264
 2019-Jan-05 11:03     14 28 37.238990 -09 09 45.23967
 2019-Jan-05 11:04     14 28 37.369110 -09 09 45.25671
 2019-Jan-05 11:05     14 28 37.499218 -09 09 45.27375
 2019-Jan-05 11:06     14 28 37.629312 -09 09 45.29079
 2019-Jan-05 11:07     14 28 37.759394 -09 09 45.30783
 2019-Jan-05 11:08     14 28 37.889462 -09 09 45.32487
 2019-Jan-05 11:09     14 28 38.019518 -09 09 45.34192
 2019-Jan-05 11:10     14 28 38.149561 -09 09 45.35897
 2019-Jan-05 11:11     14 28 38.279590 -09 09 45.37602
 2019-Jan-05 11:12     14 28 38.409607 -09 09 45.39307
 2019-Jan-05 11:13     14 28 38.539610 -09 09 45.41012
 2019-Jan-05 11:14     14 28 38.669601 -09 09 45.42718
 2019-Jan-05 11:15     14 28 38.799579 -09 09 45.44423
 2019-Jan-05 11:16     14 28 38.929543 -09 09 45.46129
 2019-Jan-05 11:17     14 28 39.059494 -09 09 45.47834
 2019-Jan-05 11:18     14 28 39.189433 -09 09 45.49540
 2019-Jan-05 11:19     14 28 39.319358 -09 09 45.51246
 2019-Jan-05 11:20     14 28 39.449270 -09 09 45.52952
 2019-Jan-05 11:21     14 28 39.579169 -09 09 45.54658
 2019-Jan-05 11:22     14 28 39.709055 -09 09 45.56364
 2019-Jan-05 11:23     14 28 39.838928 -09 09 45.58070
 2019-Jan-05 11:24     14 28 39.968788 -09 09 45.59776
 2019-Jan-05 11:25     14 28 40.098635 -09 09 45.61482
 2019-Jan-05 11:26     14 28 40.228468 -09 09 45.63188
 2019-Jan-05 11:27     14 28 40.358289 -09 09 45.64894
 2019-Jan-05 11:28     14 28 40.488096 -09 09 45.66600
 2019-Jan-05 11:29     14 28 40.617890 -09 09 45.68305
 2019-Jan-05 11:30     14 28 40.747671 -09 09 45.70011
 2019-Jan-05 11:31     14 28 40.877439 -09 09 45.71717
 2019-Jan-05 11:32     14 28 41.007193 -09 09 45.73422
 2019-Jan-05 11:33     14 28 41.136935 -09 09 45.75128
 2019-Jan-05 11:34     14 28 41.266663 -09 09 45.76833
 2019-Jan-05 11:35     14 28 41.396378 -09 09 45.78538
 2019-Jan-05 11:36     14 28 41.526080 -09 09 45.80243
 2019-Jan-05 11:37     14 28 41.655769 -09 09 45.81948
 2019-Jan-05 11:38     14 28 41.785445 -09 09 45.83652
 2019-Jan-05 11:39     14 28 41.915107 -09 09 45.85357
 2019-Jan-05 11:40     14 28 42.044756 -09 09 45.87061
 2019-Jan-05 11:41     14 28 42.174392 -09 09 45.88765
 2019-Jan-05 11:42     14 28 42.304015 -09 09 45.90468
 2019-Jan-05 11:43     14 28 42.433625 -09 09 45.92172
 2019-Jan-05 11:44     14 28 42.563221 -09 09 45.93875
 2019-Jan-05 11:45     14 28 42.692804 -09 09 45.95578
 2019-Jan-05 11:46     14 28 42.822374 -09 09 45.97280
 2019-Jan-05 11:47     14 28 42.951931 -09 09 45.98983
 2019-Jan-05 11:48     14 28 43.081474 -09 09 46.00684
 2019-Jan-05 11:49     14 28 43.211005 -09 09 46.02386
 2019-Jan-05 11:50     14 28 43.340522 -09 09 46.04087
 2019-Jan-05 11:51     14 28 43.470026 -09 09 46.05788
 2019-Jan-05 11:52     14 28 43.599516 -09 09 46.07489
 2019-Jan-05 11:53     14 28 43.728994 -09 09 46.09189
 2019-Jan-05 11:54     14 28 43.858458 -09 09 46.10889
 2019-Jan-05 11:55  r  14 28 43.987909 -09 09 46.12588
 2019-Jan-05 11:56     14 28 44.117347 -09 09 46.14287
 2019-Jan-05 11:57     14 28 44.246771 -09 09 46.15985
 2019-Jan-05 11:58     14 28 44.376182 -09 09 46.17683
 2019-Jan-05 11:59     14 28 44.505581 -09 09 46.19381
 2019-Jan-05 12:00     14 28 44.634966 -09 09 46.21078
 2019-Jan-05 12:01     14 28 44.764337 -09 09 46.22774
 2019-Jan-05 12:02     14 28 44.893696 -09 09 46.24470
 2019-Jan-05 12:03     14 28 45.023041 -09 09 46.26166
 2019-Jan-05 12:04     14 28 45.152373 -09 09 46.27861
 2019-Jan-05 12:05     14 28 45.281692 -09 09 46.29555
 2019-Jan-05 12:06     14 28 45.410998 -09 09 46.31249
 2019-Jan-05 12:07     14 28 45.540290 -09 09 46.32942
 2019-Jan-05 12:08     14 28 45.669569 -09 09 46.34635
 2019-Jan-05 12:09     14 28 45.798836 -09 09 46.36327
 2019-Jan-05 12:10     14 28 45.928088 -09 09 46.38018
 2019-Jan-05 12:11     14 28 46.057328 -09 09 46.39709
 2019-Jan-05 12:12     14 28 46.186555 -09 09 46.41399
 2019-Jan-05 12:13     14 28 46.315768 -09 09 46.43089
 2019-Jan-05 12:14     14 28 46.444968 -09 09 46.44778
 2019-Jan-05 12:15     14 28 46.574155 -09 09 46.46466
 2019-Jan-05 12:16     14 28 46.703329 -09 09 46.48153
 2019-Jan-05 12:17     14 28 46.832490 -09 09 46.49840
